QZS-1R                  
1 49336U 21096A   24181.69821454 -.00000283  00000+0  00000+0 0  9990
2 49336  35.9689  90.3392 0757359 271.7548 300.9462  1.00254267  9812
